{
  "type": "FeatureCollection",
  "features": [
    {
      "type": "Feature",
      "properties": {
        "Shape_Leng": 3211.37590018,
        "Name": "",
        "Observ": "Vía no autorizada"
      },
      "geometry": {
        "type": "LineString",
        "coordinates": [
          [
            -72.0431136,
            11.5708924
          ],
          [
            -72.0433473,
            11.5712101
          ],
          [
            -72.0434918,
            11.5714115
          ],
          [
            -72.0435258,
            11.5715279
          ],
          [
            -72.0435891,
            11.5717074
          ],
          [
            -72.043682,
            11.5718531
          ],
          [
            -72.0436913,
            11.5719937
          ],
          [
            -72.0436511,
            11.5722794
          ],
          [
            -72.0436007,
            11.5726378
          ],
          [
            -72.0434964,
            11.5729719
          ],
          [
            -72.0433132,
            11.5733637
          ],
          [
            -72.0430613,
            11.5737263
          ],
          [
            -72.0428095,
            11.5740695
          ],
          [
            -72.0422958,
            11.5748335
          ],
          [
            -72.0419307,
            11.5752684
          ],
          [
            -72.0417727,
            11.5754762
          ],
          [
            -72.0416735,
            11.5757375
          ],
          [
            -72.0415693,
            11.5760376
          ],
          [
            -72.0414303,
            11.5764539
          ],
          [
            -72.0412117,
            11.5771315
          ],
          [
            -72.0409043,
            11.5779301
          ],
          [
            -72.040283,
            11.5798005
          ],
          [
            -72.0400353,
            11.5803978
          ],
          [
            -72.0398192,
            11.5807
          ],
          [
            -72.0396804,
            11.5808812
          ],
          [
            -72.0395338,
            11.58107
          ],
          [
            -72.0391787,
            11.5816367
          ],
          [
            -72.0388004,
            11.5822336
          ],
          [
            -72.0384613,
            11.5825807
          ],
          [
            -72.0381841,
            11.5827842
          ],
          [
            -72.0378842,
            11.5829119
          ],
          [
            -72.0374998,
            11.5830394
          ],
          [
            -72.0370846,
            11.5832197
          ],
          [
            -72.0366847,
            11.5833849
          ],
          [
            -72.0362769,
            11.5836031
          ],
          [
            -72.0356766,
            11.58401
          ],
          [
            -72.0352761,
            11.5843645
          ],
          [
            -72.0347522,
            11.5848625
          ],
          [
            -72.0343671,
            11.5851943
          ],
          [
            -72.0337662,
            11.5857602
          ],
          [
            -72.0327492,
            11.5867335
          ],
          [
            -72.0322253,
            11.587239
          ],
          [
            -72.0315862,
            11.5877365
          ],
          [
            -72.0310472,
            11.5881436
          ],
          [
            -72.030639,
            11.5885132
          ],
          [
            -72.0303305,
            11.5888983
          ],
          [
            -72.0299602,
            11.5893741
          ],
          [
            -72.0296438,
            11.5898273
          ],
          [
            -72.0293894,
            11.5901217
          ],
          [
            -72.0291198,
            11.5903555
          ],
          [
            -72.0288736,
            11.5904985
          ],
          [
            -72.0285814,
            11.5906187
          ],
          [
            -72.0281199,
            11.590814
          ],
          [
            -72.0277374,
            11.5910177
          ],
          [
            -72.0272894,
            11.5912585
          ],
          [
            -72.0270629,
            11.591374
          ],
          [
            -72.0268266,
            11.5914702
          ],
          [
            -72.0266297,
            11.5915664
          ],
          [
            -72.0263687,
            11.5917351
          ],
          [
            -72.0262551,
            11.5918995
          ],
          [
            -72.0261809,
            11.5920301
          ],
          [
            -72.026141,
            11.5921995
          ],
          [
            -72.0261437,
            11.5922749
          ]
        ]
      }
    },
    {
      "type": "Feature",
      "properties": {
        "Shape_Leng": 2683.70521323,
        "Name": "",
        "Observ": "Vía no autorizada"
      },
      "geometry": {
        "type": "LineString",
        "coordinates": [
          [
            -72.0538954,
            11.5759232
          ],
          [
            -72.053829,
            11.5758975
          ],
          [
            -72.0538127,
            11.5758912
          ],
          [
            -72.0532579,
            11.5756762
          ],
          [
            -72.0517175,
            11.574764
          ],
          [
            -72.048612,
            11.5732286
          ],
          [
            -72.0461802,
            11.571929
          ],
          [
            -72.0454258,
            11.5716393
          ],
          [
            -72.0448565,
            11.5713126
          ],
          [
            -72.0446656,
            11.5712005
          ],
          [
            -72.0444853,
            11.5710947
          ],
          [
            -72.0441761,
            11.5709862
          ],
          [
            -72.0438426,
            11.5709873
          ],
          [
            -72.0431136,
            11.5708924
          ],
          [
            -72.0426187,
            11.5706628
          ],
          [
            -72.0422475,
            11.5704692
          ],
          [
            -72.0413456,
            11.5703749
          ],
          [
            -72.0407771,
            11.5702672
          ],
          [
            -72.0401715,
            11.5701597
          ],
          [
            -72.0396651,
            11.5701857
          ],
          [
            -72.0391338,
            11.5701144
          ],
          [
            -72.03802,
            11.5694851
          ],
          [
            -72.0375238,
            11.5688538
          ],
          [
            -72.0365532,
            11.5680626
          ],
          [
            -72.0356739,
            11.5673595
          ],
          [
            -72.034894,
            11.5668387
          ],
          [
            -72.033855,
            11.5663796
          ],
          [
            -72.0332232,
            11.5658461
          ],
          [
            -72.0325447,
            11.5654058
          ],
          [
            -72.0323099,
            11.5652534
          ]
        ]
      }
    }
  ]
}